[{"OBJECT_NAME":"ONEWEB-0171","OBJECT_ID":"2021-025AE","EPOCH":"2025-08-14T11:30:41.424768","MEAN_MOTION":13.13470233,"ECCENTRICITY":0.0001727,"INCLINATION":87.898,"RA_OF_ASC_NODE":21.1774,"ARG_OF_PERICENTER":91.0742,"MEAN_ANOMALY":269.0585,"EPHEMERIS_TYPE":0,"CLASSIFICATION_TYPE":"U","NORAD_CAT_ID":48070,"ELEMENT_SET_NO":999,"REV_AT_EPOCH":21335,"BSTAR":9.8481e-5,"MEAN_MOTION_DOT":4.9e-7,"MEAN_MOTION_DDOT":0},{"OBJECT_NAME":"ONEWEB-0172","OBJECT_ID":"2021-025AF","EPOCH":"2025-08-14T11:01:24.917088","MEAN_MOTION":13.13471301,"ECCENTRICITY":0.0001635,"INCLINATION":87.8987,"RA_OF_ASC_NODE":21.1478,"ARG_OF_PERICENTER":90.8771,"MEAN_ANOMALY":269.2545,"EPHEMERIS_TYPE":0,"CLASSIFICATION_TYPE":"U","NORAD_CAT_ID":48071,"ELEMENT_SET_NO":999,"REV_AT_EPOCH":21424,"BSTAR":-0.00057719,"MEAN_MOTION_DOT":-1.98e-6,"MEAN_MOTION_DDOT":0},{"OBJECT_NAME":"ONEWEB-0174","OBJECT_ID":"2021-025AG","EPOCH":"2025-08-14T10:34:38.476704","MEAN_MOTION":13.13468686,"ECCENTRICITY":0.0001704,"INCLINATION":87.8986,"RA_OF_ASC_NODE":21.1651,"ARG_OF_PERICENTER":99.0346,"MEAN_ANOMALY":261.0976,"EPHEMERIS_TYPE":0,"CLASSIFICATION_TYPE":"U","NORAD_CAT_ID":48072,"ELEMENT_SET_NO":999,"REV_AT_EPOCH":21356,"BSTAR":0.00045745,"MEAN_MOTION_DOT":1.8e-6,"MEAN_MOTION_DDOT":0},{"OBJECT_NAME":"ONEWEB-0175","OBJECT_ID":"2021-025AH","EPOCH":"2025-08-14T11:18:29.327328","MEAN_MOTION":13.13471294,"ECCENTRICITY":0.0001758,"INCLINATION":87.8985,"RA_OF_ASC_NODE":21.1236,"ARG_OF_PERICENTER":83.2404,"MEAN_ANOMALY":276.8925,"EPHEMERIS_TYPE":0,"CLASSIFICATION_TYPE":"U","NORAD_CAT_ID":48073,"ELEMENT_SET_NO":999,"REV_AT_EPOCH":21322,"BSTAR":-0.00019369,"MEAN_MOTION_DOT":-5.8e-7,"MEAN_MOTION_DDOT":0},{"OBJECT_NAME":"ONEWEB-0177","OBJECT_ID":"2021-025AJ","EPOCH":"2025-08-14T11:35:33.049824","MEAN_MOTION":13.13470468,"ECCENTRICITY":0.0001629,"INCLINATION":87.8988,"RA_OF_ASC_NODE":21.1369,"ARG_OF_PERICENTER":99.1741,"MEAN_ANOMALY":260.9572,"EPHEMERIS_TYPE":0,"CLASSIFICATION_TYPE":"U","NORAD_CAT_ID":48074,"ELEMENT_SET_NO":999,"REV_AT_EPOCH":21341,"BSTAR":0.00039292,"MEAN_MOTION_DOT":1.56e-6,"MEAN_MOTION_DDOT":0},{"OBJECT_NAME":"ONEWEB-0178","OBJECT_ID":"2021-025AK","EPOCH":"2025-08-14T12:02:32.934048","MEAN_MOTION":13.13471848,"ECCENTRICITY":0.0001509,"INCLINATION":87.8989,"RA_OF_ASC_NODE":21.1789,"ARG_OF_PERICENTER":87.2291,"MEAN_ANOMALY":272.9011,"EPHEMERIS_TYPE":0,"CLASSIFICATION_TYPE":"U","NORAD_CAT_ID":48075,"ELEMENT_SET_NO":999,"REV_AT_EPOCH":21346,"BSTAR":0.00095892,"MEAN_MOTION_DOT":3.63e-6,"MEAN_MOTION_DDOT":0},{"OBJECT_NAME":"ONEWEB-0108","OBJECT_ID":"2021-025AL","EPOCH":"2025-08-14T11:03:51.784128","MEAN_MOTION":13.13470341,"ECCENTRICITY":0.0001987,"INCLINATION":87.8984,"RA_OF_ASC_NODE":21.1346,"ARG_OF_PERICENTER":97.5756,"MEAN_ANOMALY":262.5599,"EPHEMERIS_TYPE":0,"CLASSIFICATION_TYPE":"U","NORAD_CAT_ID":48076,"ELEMENT_SET_NO":999,"REV_AT_EPOCH":21338,"BSTAR":-0.00075873,"MEAN_MOTION_DOT":-2.64e-6,"MEAN_MOTION_DDOT":0},{"OBJECT_NAME":"ONEWEB-0169","OBJECT_ID":"2021-025AM","EPOCH":"2025-08-14T11:50:11.346432","MEAN_MOTION":13.13471004,"ECCENTRICITY":0.0001984,"INCLINATION":87.8987,"RA_OF_ASC_NODE":21.1504,"ARG_OF_PERICENTER":97.5567,"MEAN_ANOMALY":262.5788,"EPHEMERIS_TYPE":0,"CLASSIFICATION_TYPE":"U","NORAD_CAT_ID":48077,"ELEMENT_SET_NO":999,"REV_AT_EPOCH":21204,"BSTAR":0.00084798,"MEAN_MOTION_DOT":3.22e-6,"MEAN_MOTION_DDOT":0},{"OBJECT_NAME":"ONEWEB-0176","OBJECT_ID":"2021-031A","EPOCH":"2025-08-14T13:50:14.218944","MEAN_MOTION":13.14501812,"ECCENTRICITY":0.0001739,"INCLINATION":87.9078,"RA_OF_ASC_NODE":350.7211,"ARG_OF_PERICENTER":95.2423,"MEAN_ANOMALY":264.8905,"EPHEMERIS_TYPE":0,"CLASSIFICATION_TYPE":"U","NORAD_CAT_ID":48210,"ELEMENT_SET_NO":999,"REV_AT_EPOCH":20803,"BSTAR":0.00067611,"MEAN_MOTION_DOT":2.63e-6,"MEAN_MOTION_DDOT":0},{"OBJECT_NAME":"ONEWEB-0184","OBJECT_ID":"2021-031B","EPOCH":"2025-08-14T15:01:01.268832","MEAN_MOTION":13.14503542,"ECCENTRICITY":0.0001526,"INCLINATION":87.9081,"RA_OF_ASC_NODE":350.6809,"ARG_OF_PERICENTER":69.2717,"MEAN_ANOMALY":290.8576,"EPHEMERIS_TYPE":0,"CLASSIFICATION_TYPE":"U","NORAD_CAT_ID":48211,"ELEMENT_SET_NO":999,"REV_AT_EPOCH":20801,"BSTAR":0.00018929,"MEAN_MOTION_DOT":8.3e-7,"MEAN_MOTION_DDOT":0},{"OBJECT_NAME":"ONEWEB-0179","OBJECT_ID":"2021-031C","EPOCH":"2025-08-14T14:18:46.088064","MEAN_MOTION":13.14502589,"ECCENTRICITY":0.0001771,"INCLINATION":87.9079,"RA_OF_ASC_NODE":350.7045,"ARG_OF_PERICENTER":101.5614,"MEAN_ANOMALY":258.5715,"EPHEMERIS_TYPE":0,"CLASSIFICATION_TYPE":"U","NORAD_CAT_ID":48212,"ELEMENT_SET_NO":999,"REV_AT_EPOCH":20805,"BSTAR":-0.00025085,"MEAN_MOTION_DOT":-8.0e-7,"MEAN_MOTION_DDOT":0},{"OBJECT_NAME":"ONEWEB-0180","OBJECT_ID":"2021-031D","EPOCH":"2025-08-14T15:05:36.233376","MEAN_MOTION":13.14503678,"ECCENTRICITY":0.0001523,"INCLINATION":87.9082,"RA_OF_ASC_NODE":350.6856,"ARG_OF_PERICENTER":100.3875,"MEAN_ANOMALY":259.7427,"EPHEMERIS_TYPE":0,"CLASSIFICATION_TYPE":"U","NORAD_CAT_ID":48213,"ELEMENT_SET_NO":999,"REV_AT_EPOCH":20794,"BSTAR":0.00050133,"MEAN_MOTION_DOT":1.99e-6,"MEAN_MOTION_DDOT":0},{"OBJECT_NAME":"ONEWEB-0218","OBJECT_ID":"2021-031E","EPOCH":"2025-08-14T13:47:56.521536","MEAN_MOTION":13.14501386,"ECCENTRICITY":0.0001253,"INCLINATION":87.9084,"RA_OF_ASC_NODE":350.6971,"ARG_OF_PERICENTER":69.7219,"MEAN_ANOMALY":290.4045,"EPHEMERIS_TYPE":0,"CLASSIFICATION_TYPE":"U","NORAD_CAT_ID":48214,"ELEMENT_SET_NO":999,"REV_AT_EPOCH":20809,"BSTAR":0.00063491,"MEAN_MOTION_DOT":2.48e-6,"MEAN_MOTION_DDOT":0},{"OBJECT_NAME":"ONEWEB-0209","OBJECT_ID":"2021-031F","EPOCH":"2025-08-14T08:03:07.816896","MEAN_MOTION":13.14501977,"ECCENTRICITY":0.0001723,"INCLINATION":87.9086,"RA_OF_ASC_NODE":350.789,"ARG_OF_PERICENTER":102.8391,"MEAN_ANOMALY":257.2931,"EPHEMERIS_TYPE":0,"CLASSIFICATION_TYPE":"U","NORAD_CAT_ID":48215,"ELEMENT_SET_NO":999,"REV_AT_EPOCH":20806,"BSTAR":0.00076465,"MEAN_MOTION_DOT":2.96e-6,"MEAN_MOTION_DDOT":0},{"OBJECT_NAME":"ONEWEB-0198","OBJECT_ID":"2021-031G","EPOCH":"2025-08-14T14:58:45.400512","MEAN_MOTION":13.1450417,"ECCENTRICITY":0.0001384,"INCLINATION":87.9077,"RA_OF_ASC_NODE":350.7322,"ARG_OF_PERICENTER":95.5943,"MEAN_ANOMALY":264.5344,"EPHEMERIS_TYPE":0,"CLASSIFICATION_TYPE":"U","NORAD_CAT_ID":48216,"ELEMENT_SET_NO":999,"REV_AT_EPOCH":20821,"BSTAR":8.6629e-5,"MEAN_MOTION_DOT":4.5e-7,"MEAN_MOTION_DDOT":0},{"OBJECT_NAME":"ONEWEB-0189","OBJECT_ID":"2021-031H","EPOCH":"2025-08-14T15:17:01.305888","MEAN_MOTION":13.14502952,"ECCENTRICITY":0.0001429,"INCLINATION":87.9079,"RA_OF_ASC_NODE":350.7033,"ARG_OF_PERICENTER":95.5787,"MEAN_ANOMALY":264.5506,"EPHEMERIS_TYPE":0,"CLASSIFICATION_TYPE":"U","NORAD_CAT_ID":48217,"ELEMENT_SET_NO":999,"REV_AT_EPOCH":20795,"BSTAR":0.0007775,"MEAN_MOTION_DOT":3.01e-6,"MEAN_MOTION_DDOT":0},{"OBJECT_NAME":"ONEWEB-0196","OBJECT_ID":"2021-031J","EPOCH":"2025-08-14T14:45:02.989152","MEAN_MOTION":13.1450373,"ECCENTRICITY":0.0001676,"INCLINATION":87.9083,"RA_OF_ASC_NODE":350.7209,"ARG_OF_PERICENTER":99.292,"MEAN_ANOMALY":260.8399,"EPHEMERIS_TYPE":0,"CLASSIFICATION_TYPE":"U","NORAD_CAT_ID":48218,"ELEMENT_SET_NO":999,"REV_AT_EPOCH":20795,"BSTAR":-0.00020922,"MEAN_MOTION_DOT":-6.5e-7,"MEAN_MOTION_DDOT":0}]
