ONEWEB-0171             
1 48070U 21025AE  25226.47964612  .00000049  00000+0  98481-4 0  9991
2 48070  87.8980  21.1774 0001727  91.0742 269.0585 13.13470233213359
ONEWEB-0172             
1 48071U 21025AF  25226.45931617 -.00000198  00000+0 -57719-3 0  9994
2 48071  87.8987  21.1478 0001635  90.8771 269.2545 13.13471301214249
ONEWEB-0174             
1 48072U 21025AG  25226.44072311  .00000180  00000+0  45745-3 0  9996
2 48072  87.8986  21.1651 0001704  99.0346 261.0976 13.13468686213562
ONEWEB-0175             
1 48073U 21025AH  25226.47117277 -.00000058  00000+0 -19369-3 0  9990
2 48073  87.8985  21.1236 0001758  83.2404 276.8925 13.13471294213220
ONEWEB-0177             
1 48074U 21025AJ  25226.48302141  .00000156  00000+0  39292-3 0  9992
2 48074  87.8988  21.1369 0001629  99.1741 260.9572 13.13470468213413
ONEWEB-0178             
1 48075U 21025AK  25226.50177007  .00000363  00000+0  95892-3 0  9995
2 48075  87.8989  21.1789 0001509  87.2291 272.9011 13.13471848213465
ONEWEB-0108             
1 48076U 21025AL  25226.46101602 -.00000264  00000+0 -75873-3 0  9998
2 48076  87.8984  21.1346 0001987  97.5756 262.5599 13.13470341213384
ONEWEB-0169             
1 48077U 21025AM  25226.49318688  .00000322  00000+0  84798-3 0  9995
2 48077  87.8987  21.1504 0001984  97.5567 262.5788 13.13471004212040
ONEWEB-0176             
1 48210U 21031A   25226.57655346  .00000263  00000+0  67611-3 0  9994
2 48210  87.9078 350.7211 0001739  95.2423 264.8905 13.14501812208033
ONEWEB-0184             
1 48211U 21031B   25226.62570913  .00000083  00000+0  18929-3 0  9995
2 48211  87.9081 350.6809 0001526  69.2717 290.8576 13.14503542208014
ONEWEB-0179             
1 48212U 21031C   25226.59636676 -.00000080  00000+0 -25085-3 0  9991
2 48212  87.9079 350.7045 0001771 101.5614 258.5715 13.14502589208053
ONEWEB-0180             
1 48213U 21031D   25226.62889159  .00000199  00000+0  50133-3 0  9993
2 48213  87.9082 350.6856 0001523 100.3875 259.7427 13.14503678207948
ONEWEB-0218             
1 48214U 21031E   25226.57495974  .00000248  00000+0  63491-3 0  9992
2 48214  87.9084 350.6971 0001253  69.7219 290.4045 13.14501386208098
ONEWEB-0209             
1 48215U 21031F   25226.33550714  .00000296  00000+0  76465-3 0  9999
2 48215  87.9086 350.7890 0001723 102.8391 257.2931 13.14501977208062
ONEWEB-0198             
1 48216U 21031G   25226.62413658  .00000045  00000+0  86629-4 0  9993
2 48216  87.9077 350.7322 0001384  95.5943 264.5344 13.14504170208211
ONEWEB-0189             
1 48217U 21031H   25226.63682067  .00000301  00000+0  77750-3 0  9996
2 48217  87.9079 350.7033 0001429  95.5787 264.5506 13.14502952207955
ONEWEB-0196             
1 48218U 21031J   25226.61461793 -.00000065  00000+0 -20922-3 0  9994
2 48218  87.9083 350.7209 0001676  99.2920 260.8399 13.14503730207954
